CS2                     
1 49262U 21088C   26068.73485932  .00018033  00000+0  56178-3 0  9999
2 49262  97.3928 134.2907 0011637  82.3491 277.9072 15.33255930245263
STARLINK-35860          
1 66881U 25283D   26068.20170508  .00031095  00000+0  10574-2 0  9990
2 66881  53.1627  26.1336 0001027 104.7371 255.3743 15.30206831 15777
